[{"OBJECT_NAME":"FLOCK 4G-11","OBJECT_ID":"2025-009W","EPOCH":"2026-03-09T10:57:03.681504","MEAN_MOTION":15.27220677,"ECCENTRICITY":0.00016118,"INCLINATION":97.3964,"RA_OF_ASC_NODE":150.6183,"ARG_OF_PERICENTER":333.5407,"MEAN_ANOMALY":26.575,"EPHEMERIS_TYPE":0,"CLASSIFICATION_TYPE":"U","NORAD_CAT_ID":62629,"ELEMENT_SET_NO":999,"REV_AT_EPOCH":6368,"BSTAR":0.00047740378,"MEAN_MOTION_DOT":0.00012672,"MEAN_MOTION_DDOT":0},{"OBJECT_NAME":"STARLINK-36097","OBJECT_ID":"2025-298S","EPOCH":"2026-03-09T21:42:20.478816","MEAN_MOTION":15.26086669,"ECCENTRICITY":0.00039178,"INCLINATION":70.003,"RA_OF_ASC_NODE":12.9557,"ARG_OF_PERICENTER":200.4809,"MEAN_ANOMALY":159.6208,"EPHEMERIS_TYPE":0,"CLASSIFICATION_TYPE":"U","NORAD_CAT_ID":67091,"ELEMENT_SET_NO":999,"REV_AT_EPOCH":1327,"BSTAR":0.0027728212,"MEAN_MOTION_DOT":0.00072258,"MEAN_MOTION_DDOT":0}]
